{
    "links": {
        "self": "http://www.neowsapp.com/rest/v1/neo/3837862?api_key=iIulBulltgU6a56xZRHN4H3l9WmuAYTsLGpBGhQ2"
    },
    "id": "3837862",
    "neo_reference_id": "3837862",
    "name": "(2019 AT11)",
    "designation": "2019 AT11",
    "nasa_jpl_url": "http://ssd.jpl.nasa.gov/sbdb.cgi?sstr=3837862",
    "absolute_magnitude_h": 25.3,
    "estimated_diameter": {
        "kilometers": {
            "estimated_diameter_min": 0.0231502122,
            "estimated_diameter_max": 0.0517654482
        },
        "meters": {
            "estimated_diameter_min": 23.150212221,
            "estimated_diameter_max": 51.7654482198
        },
        "miles": {
            "estimated_diameter_min": 0.0143848705,
            "estimated_diameter_max": 0.0321655483
        },
        "feet": {
            "estimated_diameter_min": 75.9521422633,
            "estimated_diameter_max": 169.8341531374
        }
    },
    "is_potentially_hazardous_asteroid": false,
    "close_approach_data": [
        {
            "close_approach_date": "2019-01-12",
            "close_approach_date_full": "2019-Jan-12 02:19",
            "epoch_date_close_approach": 1547259540000,
            "relative_velocity": {
                "kilometers_per_second": "6.0208518681",
                "kilometers_per_hour": "21675.066725074",
                "miles_per_hour": "13468.0435436995"
            },
            "miss_distance": {
                "astronomical": "0.0888260213",
                "lunar": "34.5533222857",
                "kilometers": "13288183.587054631",
                "miles": "8256894.4037146678"
            },
            "orbiting_body": "Earth"
        },
        {
            "close_approach_date": "2021-01-19",
            "close_approach_date_full": "2021-Jan-19 12:15",
            "epoch_date_close_approach": 1611058500000,
            "relative_velocity": {
                "kilometers_per_second": "3.7447996947",
                "kilometers_per_hour": "13481.2789008862",
                "miles_per_hour": "8376.7424370534"
            },
            "miss_distance": {
                "astronomical": "1.5573062716",
                "lunar": "605.7921396524",
                "kilometers": "232969701.169001492",
                "miles": "144760659.6654329096"
            },
            "orbiting_body": "Juptr"
        }
    ],
    "orbital_data": {
        "orbit_id": "2",
        "orbit_determination_date": "2019-07-16 06:15:21",
        "first_observation_date": "2019-01-11",
        "last_observation_date": "2019-01-15",
        "data_arc_in_days": 4,
        "observations_used": 18,
        "orbit_uncertainty": "8",
        "minimum_orbit_intersection": ".0887417",
        "jupiter_tisserand_invariant": "3.263",
        "epoch_osculation": "2458496.5",
        "eccentricity": ".5651856585720102",
        "semi_major_axis": "2.436370570275685",
        "inclination": "3.16734871851276",
        "ascending_node_longitude": "57.29179682095075",
        "orbital_period": "1389.035816341925",
        "perihelion_distance": "1.059368864988958",
        "perihelion_argument": "55.87627729886734",
        "aphelion_distance": "3.813372275562413",
        "perihelion_time": "2458497.370750338529",
        "mean_anomaly": "359.7743253858666",
        "mean_motion": ".2591725827114182",
        "equinox": "J2000",
        "orbit_class": {
            "orbit_class_type": "AMO",
            "orbit_class_description": "Near-Earth asteroid orbits similar to that of 1221 Amor",
            "orbit_class_range": "1.017 AU < q (perihelion) < 1.3 AU"
        }
    },
    "is_sentry_object": false
}